TRITON-1                
1 39427U 13066M   26155.93723132  .00001796  00000+0  22032-3 0  9994
2 39427  97.8258  66.0234 0088398 274.5745  84.5375 14.81658709672272
GOMX-1                  
1 39430U 13066Q   26155.92891786  .00002521  00000+0  38155-3 0  9998
2 39430  97.6488 357.1650 0130016 116.4594 245.0019 14.69412184668114
CUBEBUG-2 (LO-74)       
1 39440U 13066AA  26154.33051700  .00005093  00000+0  47123-3 0  9999
2 39440  97.8904 103.2522 0059453  73.9566 286.8190 14.93641817674922
NEE-02 KRYSAOR          
1 39441U 13066AB  26155.75699966  .00002457  00000+0  27225-3 0  9991
2 39441  97.8893  95.0615 0067693 109.9850 250.8672 14.86564783674353
FUNCUBE-1 (AO-73)       
1 39444U 13066AE  26155.59353272  .00008112  00000+0  50553-3 0  9997
2 39444  97.8278 126.7780 0034647 245.3456 114.4162 15.09331351677764
UWE-3                   
1 39446U 13066AG  26155.64928530  .00004713  00000+0  40572-3 0  9993
2 39446  97.8702 111.6406 0049326   3.6109 356.5458 14.96922367675703
SMDC ONE 2.4            
1 39469U 13072H   26155.42496773  .00011546  00000+0  44543-3 0  9994
2 39469 120.4929 302.8192 0143411   5.4328 354.8269 15.17932180115899
COSMOS 2488 (RODNIK-S 7)
1 39483U 13076A   26155.88294237  .00000059  00000+0  35172-3 0  9990
2 39483  82.4827 176.3612 0020678 120.7278 239.5842 12.42905602564364
COSMOS 2489 (RODNIK-S 8)
1 39484U 13076B   26155.93838045  .00000064  00000+0  38784-3 0  9996
2 39484  82.4864 177.7013 0022507 120.6906 239.6396 12.42879700564427
COSMOS 2490 (RODNIK-S 9)
1 39485U 13076C   26155.91025022 -.00000009  00000+0 -13522-3 0  9992
2 39485  82.4810 175.7916 0022442 135.8033 224.4844 12.42877661564352
KAZEOSAT 1              
1 39731U 14024A   26155.94875023  .00000221  00000+0  80255-4 0  9999
2 39731  98.3206 228.6996 0001505  77.9691 282.1667 14.42074958636792
COSMOS 2496 (RODNIK-S *)
1 39761U 14028A   26155.94829613  .00000014  00000+0  26864-4 0  9996
2 39761  82.4442 116.3968 0021162 104.0712 256.2722 12.42877940545995
COSMOS 2497 (RODNIK-S *)
1 39762U 14028B   26155.92373222  .00000017  00000+0  51161-4 0  9996
2 39762  82.4488 118.0972 0021765  99.4324 260.9217 12.42893582545996
COSMOS 2498 (RODNIK-S *)
1 39763U 14028C   26155.98267412 -.00000113  00000+0 -88319-3 0  9999
2 39763  82.4450 116.5526 0022494  98.9952 261.3675 12.42979131546039
HODOYOSHI-4             
1 40011U 14033B   26155.93076436  .00001865  00000+0  20745-3 0  9994
2 40011  97.5448 341.3452 0023527 350.1280   9.9472 14.88099845646985
UNISAT-6                
1 40012U 14033C   26155.89633744  .00004127  00000+0  44485-3 0  9992
2 40012  97.7872 308.8262 0046450 108.6463 251.9805 14.88175664644335
DEIMOS-2                
1 40013U 14033D   26155.92415897  .00001894  00000+0  18426-3 0  9998
2 40013  97.5836  30.8430 0001923  58.9602 301.1807 14.93689254635893
BUGSAT-1 (TITA)         
1 40014U 14033E   26155.95355726  .00004728  00000+0  25181-3 0  9991
2 40014  98.0422 247.7885 0027069 220.6222 139.2990 15.15444318653987
SAUDISAT 4              
1 40016U 14033G   26155.81018348  .00000943  00000+0  13064-3 0  9996
2 40016  97.7570 302.3744 0046146 113.0298 247.5790 14.79526950644248
APRIZESAT 9             
1 40018U 14033J   26155.24354805  .00000791  00000+0  12373-3 0  9999
2 40018  97.9046 288.7598 0064910 241.3340 118.1332 14.74197203641653
BRITE-CA1 (TORONTO)     
1 40020U 14033L   26155.26417950  .00000870  00000+0  13835-3 0  9997
2 40020  97.9724 284.4316 0077664 319.0531  40.4860 14.72658739640314
